NORAD_CAT_ID,OBJECT_NAME,OBJECT_TYPE,EPOCH,MEAN_MOTION,ECCENTRICITY,INCLINATION,RA_OF_ASC_NODE,ARG_OF_PERICENTER,MEAN_ANOMALY,BSTAR,MEAN_MOTION_DOT,MEAN_MOTION_DDOT,TLE_LINE0,TLE_LINE1,TLE_LINE2,SEMIMAJOR_AXIS,PERIOD,APOGEE,PERIGEE,DECAYED
54205.0,STARLINK-5249,PAYLOAD,2022-11-23 14:00:01,15.73149143,0.0003425,53.2172,12.5288,16.1552,285.0984,0.00066539,0.00093624,0.0,0 STARLINK-5249,1 54205U 22141BA  22327.58334491  .00093624  00000-0  66539-3 0  9995,2 54205  53.2172  12.5288 0003425  16.1552 285.0984 15.73149143  1306,6728.04,91.536,352.21,347.601,0.0
54205.0,STARLINK-5249,PAYLOAD,2022-11-23 22:00:00,15.732011600000002,0.0003176,53.2171,10.8773,16.1747,13.9875,0.00025993,0.00036023,0.0,0 STARLINK-5249,1 54205U 22141BA  22327.91667824  .00036023  00000-0  25993-3 0  9990,2 54205  53.2171  10.8773 0003176  16.1747  13.9875 15.73201160  4492,6727.892,91.533,351.894,347.62,0.0
54205.0,STARLINK-5249,PAYLOAD,2022-11-24 06:00:02,15.7326107,0.0003172,53.2168,9.2284,13.6595,105.5062,-0.0013935,-0.00192363,0.0,0 STARLINK-5249,1 54205U 22141BA  22328.25002315 -.00192363  00000-0 -13935-2 0  9990,2 54205  53.2168   9.2284 0003172  13.6595 105.5062 15.73261070  4544,6727.721,91.53,351.72,347.452,0.0
54205.0,STARLINK-5249,PAYLOAD,2022-11-24 14:00:01,15.7307829,0.0003401,53.2164,7.5804,10.7092,197.3194,0.0013275,0.00188977,0.0,0 STARLINK-5249,1 54205U 22141BA  22328.58334491  .00188977  00000-0  13275-2 0  9990,2 54205  53.2164   7.5804 0003401  10.7092 197.3194 15.73078290  1300,6728.2419999999975,91.54,352.395,347.819,0.0
54205.0,STARLINK-5249,PAYLOAD,2022-11-24 22:00:00,15.73186244,0.0003227,53.2166,5.9288,14.7281,282.171,0.00053972,0.00075781,0.0,0 STARLINK-5249,1 54205U 22141BA  22328.91667824  .00075781  00000-0  53972-3 0  9993,2 54205  53.2166   5.9288 0003227  14.7281 282.1710 15.73186244  1306,6727.934,91.534,351.97,347.62800000000016,0.0
54205.0,STARLINK-5249,PAYLOAD,2022-11-25 14:00:01,15.73274379,0.0003533,53.2166,2.6314,13.7053,101.1378,-7.5032e-05,-0.00011178,0.0,0 STARLINK-5249,1 54205U 22141BA  22329.58334491 -.00011178  00000-0 -75032-4 0  9992,2 54205  53.2166   2.6314 0003533  13.7053 101.1378 15.73274379  4755,6727.683000000001,91.529,351.925,347.171,0.0
54205.0,STARLINK-5249,PAYLOAD,2022-11-25 22:00:00,15.73252179,0.0003289,53.2166,0.9796,11.9724,191.8942,-0.00014017,-0.00020298,0.0,0 STARLINK-5249,1 54205U 22141BA  22329.91667824 -.00020298  00000-0 -14017-3 0  9996,2 54205  53.2166   0.9796 0003289  11.9724 191.8942 15.73252179  1308,6727.746,91.53,351.824,347.399,0.0
54205.0,STARLINK-5249,PAYLOAD,2022-11-26 06:00:00,15.73249412,0.0003398,53.2164,359.3309,14.514,278.3376,-0.00040844,-0.00057695,0.0,0 STARLINK-5249,1 54205U 22141BA  22330.25001157 -.00057695  00000-0 -40844-3 0  9994,2 54205  53.2164 359.3309 0003398  14.5140 278.3376 15.73249412  4850,6727.754,91.53,351.905,347.333,0.0
54205.0,STARLINK-5249,PAYLOAD,2022-11-26 14:00:01,15.73223926,0.0003614,53.2159,357.6823,13.1872,8.6174,6.016000000000001e-06,2.21e-06,0.0,0 STARLINK-5249,1 54205U 22141BA  22330.58334491  .00000221  00000-0  60160-5 0  9996,2 54205  53.2159 357.6823 0003614  13.1872   8.6174 15.73223926  1303,6727.8269999999975,91.532,352.12300000000016,347.261,0.0
54205.0,STARLINK-5249,PAYLOAD,2022-11-26 22:00:00,15.73181415,0.000325,53.2163,356.0306,10.1422,100.6411,-0.000154,-0.00022168,0.0,0 STARLINK-5249,1 54205U 22141BA  22330.91667824 -.00022168  00000-0 -15400-3 0  9993,2 54205  53.2163 356.0306 0003250  10.1422 100.6411 15.73181415  1304,6727.948,91.534,352.0,347.62699999999984,0.0
54205.0,STARLINK-5249,PAYLOAD,2022-11-27 14:00:01,15.73124636,0.0003603,53.2164,352.7334,5.8271,282.737,0.00050502,0.00070642,0.0,0 STARLINK-5249,1 54205U 22141BA  22331.58334491  .00070642  00000-0  50502-3 0  9998,2 54205  53.2164 352.7334 0003603   5.8271 282.7370 15.73124636  1302,6728.11,91.538,352.399,347.551,0.0
54205.0,STARLINK-5249,PAYLOAD,2022-11-27 22:00:00,15.73143882,0.0003368,53.2164,351.0821,7.7586,9.6829,0.00070232,0.00098894,0.0,0 STARLINK-5249,1 54205U 22141BA  22331.91667824  .00098894  00000-0  70232-3 0  9995,2 54205  53.2164 351.0821 0003368   7.7586   9.6829 15.73143882  5126,6728.055,91.536,352.186,347.654,0.0
54205.0,STARLINK-5249,PAYLOAD,2022-11-28 14:00:01,15.73186949,0.0003628999999999,53.2158,347.7851,6.3974,188.9044,0.00045166,0.00063226,0.0,0 STARLINK-5249,1 54205U 22141BA  22332.58334491  .00063226  00000-0  45166-3 0  9999,2 54205  53.2158 347.7851 0003629   6.3974 188.9044 15.73186949  5222,6727.932,91.534,352.23900000000015,347.356,0.0
54205.0,STARLINK-5249,PAYLOAD,2022-11-28 22:00:01,15.73216845,0.00034,53.2161,346.1335,8.0689,276.2421,0.00045065,0.00063161,0.0,0 STARLINK-5249,1 54205U 22141BA  22332.91668981  .00063161  00000-0  45065-3 0  9996,2 54205  53.2161 346.1335 0003400   8.0689 276.2421 15.73216845  1309,6727.847,91.532,352.0,347.425,0.0
54205.0,STARLINK-5249,PAYLOAD,2022-11-29 06:00:00,15.73266393,0.0003571,53.2163,344.4854,10.5943,2.6234,-0.0008394,-0.00117185,0.0,0 STARLINK-5249,1 54205U 22141BA  22333.25001157 -.00117185  00000-0 -83940-3 0  9992,2 54205  53.2163 344.4854 0003571  10.5943   2.6234 15.73266393  5331,6727.706,91.529,351.973,347.168,0.0
54205.0,STARLINK-5249,PAYLOAD,2022-11-29 14:00:01,15.73198227,0.0003716,53.2162,342.8361,7.7813,94.4596,-0.00040402,-0.00056963,0.0,0 STARLINK-5249,1 54205U 22141BA  22333.58335648 -.00056963  00000-0 -40402-3 0  9995,2 54205  53.2162 342.8361 0003716   7.7813  94.4596 15.73198227  1303,6727.9,91.533,352.265,347.265,0.0
54205.0,STARLINK-5249,PAYLOAD,2022-11-29 22:00:00,15.73133262,0.0003469,53.2161,341.185,7.8311,183.253,0.00069731,0.00098132,0.0,0 STARLINK-5249,1 54205U 22141BA  22333.91667824  .00098132  00000-0  69731-3 0  9994,2 54205  53.2161 341.1850 0003469   7.8311 183.2530 15.73133262  5437,6728.085,91.537,352.284,347.616,0.0
54205.0,STARLINK-5249,PAYLOAD,2022-11-30 14:00:01,15.73232509,0.0003793,53.2158,337.8858,8.2097,0.7704,-0.000455,-0.00064113,0.0,0 STARLINK-5249,1 54205U 22141BA  22334.58335648 -.00064113  00000-0 -45500-3 0  9996,2 54205  53.2158 337.8858 0003793   8.2097   0.7704 15.73232509  5541,6727.802,91.531,352.219,347.116,0.0
54205.0,STARLINK-5249,PAYLOAD,2022-11-30 22:00:00,15.73085677,0.0003551,53.2165,336.2315,12.7696,85.1122,0.0010229,0.00144755,0.0,0 STARLINK-5249,1 54205U 22141BA  22334.91667824  .00144755  00000-0  10229-2 0  9995,2 54205  53.2165 336.2315 0003551  12.7696  85.1122 15.73085677  1300,6728.221,91.54,352.475,347.69699999999995,0.0
54205.0,STARLINK-5249,PAYLOAD,2022-12-01 06:00:00,15.73172457,0.0003664,53.2161,334.5883,4.7865,181.9776,0.00017239,0.00023618,0.0,0 STARLINK-5249,1 54205U 22141BA  22335.25001157  .00023618  00000-0  17239-3 0  9997,2 54205  53.2161 334.5883 0003664   4.7865 181.9776 15.73172457  5645,6727.974,91.535,352.30400000000014,347.374,0.0
54205.0,STARLINK-5249,PAYLOAD,2022-12-01 14:00:01,15.73247718,0.0003708,53.2156,332.9393,3.1231,272.5942,-0.00045076,-0.00063565,0.0,0 STARLINK-5249,1 54205U 22141BA  22335.58334491 -.00063565  00000-0 -45076-3 0  9990,2 54205  53.2156 332.9393 0003708   3.1231 272.5942 15.73247718  1300,6727.759,91.53,352.119,347.129,0.0
54205.0,STARLINK-5249,PAYLOAD,2022-12-01 20:00:01,15.73175427,0.0003563999999999,53.2157,331.7007,2.374,250.1439,0.00072668,0.00102533,0.0,0 STARLINK-5249,1 54205U 22141BA  22335.83335648  .00102533  00000-0  72668-3 0  9997,2 54205  53.2157 331.7007 0003564   2.3740 250.1439 15.73175427  5737,6727.965,91.535,352.228,347.432,0.0
54205.0,STARLINK-5249,PAYLOAD,2022-12-01 22:00:00,15.7319988,0.0003535,53.2155,331.2881,2.9394,1.7405,0.00052475,0.0007369,0.0,0 STARLINK-5249,1 54205U 22141BA  22335.91667824  .00073690  00000-0  52475-3 0  9995,2 54205  53.2155 331.2881 0003535   2.9394   1.7405 15.73199880  1300,6727.896,91.533,352.139,347.38199999999995,0.0
54205.0,STARLINK-5249,PAYLOAD,2022-12-02 06:00:00,15.73037898,0.0003471,53.2173,329.6341,5.1365,88.4853,0.001812,0.00259931,0.0,0 STARLINK-5249,1 54205U 22141BA  22336.25001157  .00259931  00000-0  18120-2 0  9996,2 54205  53.2173 329.6341 0003471   5.1365  88.4853 15.73037898  5802,6728.357,91.543,352.55800000000005,347.88699999999994,0.0
54205.0,STARLINK-5249,PAYLOAD,2022-12-02 14:00:01,15.73205178,0.000379,53.2146,327.9907,7.6029,174.965,-6.7957e-05,-0.00010156,0.0,0 STARLINK-5249,1 54205U 22141BA  22336.58334491 -.00010156  00000-0 -67957-4 0  9992,2 54205  53.2146 327.9907 0003790   7.6029 174.9650 15.73205178  1304,6727.88,91.533,352.295,347.196,0.0
54205.0,STARLINK-5249,PAYLOAD,2022-12-02 22:00:00,15.73212212,0.0003554,53.2147,326.3395,10.2809,261.2139,-6.2369e-05,-9.375e-05,0.0,0 STARLINK-5249,1 54205U 22141BA  22336.91667824 -.00009375  00000-0 -62369-4 0  9991,2 54205  53.2147 326.3395 0003554  10.2809 261.2139 15.73212212  5902,6727.86,91.532,352.116,347.334,0.0
54205.0,STARLINK-5249,PAYLOAD,2022-12-03 14:00:01,15.73232625,0.0003818,53.2148,323.0418,10.9439,78.4263,-0.00049889,-0.00070189,0.0,0 STARLINK-5249,1 54205U 22141BA  22337.58334491 -.00070189  00000-0 -49889-3 0  9998,2 54205  53.2148 323.0418 0003818  10.9439  78.4263 15.73232625  1308,6727.802,91.531,352.236,347.098,0.0
54205.0,STARLINK-5249,PAYLOAD,2022-12-03 22:00:00,15.73201672,0.0003568,53.2148,321.3906,11.4146,166.8903,0.00027001,0.00037454,0.0,0 STARLINK-5249,1 54205U 22141BA  22337.91667824  .00037454  00000-0  27001-3 0  9992,2 54205  53.2148 321.3906 0003568  11.4146 166.8903 15.73201672  1305,6727.89,91.533,352.156,347.355,0.0
54205.0,STARLINK-5249,PAYLOAD,2022-12-04 04:00:00,15.73257194,0.0003739,53.2145,320.155,9.3303,145.6809,-0.00093352,-0.00130014,0.0,0 STARLINK-5249,1 54205U 22141BA  22338.16667824 -.00130014  00000-0 -93352-3 0  9990,2 54205  53.2145 320.1550 0003739   9.3303 145.6809 15.73257194  6108,6727.732,91.53,352.11300000000006,347.082,0.0
